[{"OBJECT_NAME":"STARLINK-3822","OBJECT_ID":"2022-041AC","EPOCH":"2026-03-09T12:29:36.528288","MEAN_MOTION":15.08843112,"ECCENTRICITY":0.00014699,"INCLINATION":53.2165,"RA_OF_ASC_NODE":109.8809,"ARG_OF_PERICENTER":93.4985,"MEAN_ANOMALY":266.6175,"EPHEMERIS_TYPE":0,"CLASSIFICATION_TYPE":"U","NORAD_CAT_ID":52287,"ELEMENT_SET_NO":999,"REV_AT_EPOCH":21434,"BSTAR":1.481397e-5,"MEAN_MOTION_DOT":-5.2e-7,"MEAN_MOTION_DDOT":0},{"OBJECT_NAME":"YUNYAO-1 46","OBJECT_ID":"2025-059D","EPOCH":"2026-03-09T22:34:36.342624","MEAN_MOTION":15.10325082,"ECCENTRICITY":0.00132847,"INCLINATION":97.6091,"RA_OF_ASC_NODE":250.9055,"ARG_OF_PERICENTER":123.8801,"MEAN_ANOMALY":236.3694,"EPHEMERIS_TYPE":0,"CLASSIFICATION_TYPE":"U","NORAD_CAT_ID":63347,"ELEMENT_SET_NO":999,"REV_AT_EPOCH":5331,"BSTAR":0.0002771923,"MEAN_MOTION_DOT":4.488e-5,"MEAN_MOTION_DDOT":0}]
